NORAD_CAT_ID,OBJECT_NAME,OBJECT_TYPE,EPOCH,MEAN_MOTION,ECCENTRICITY,INCLINATION,RA_OF_ASC_NODE,ARG_OF_PERICENTER,MEAN_ANOMALY,BSTAR,MEAN_MOTION_DOT,MEAN_MOTION_DDOT,TLE_LINE0,TLE_LINE1,TLE_LINE2,SEMIMAJOR_AXIS,PERIOD,APOGEE,PERIGEE,DECAYED
49751.0,STARLINK-3229,PAYLOAD,2024-06-13 04:40:12,15.08847355,0.000139,53.2173,117.4031,82.6911,277.4239,5.7508e-05,6.28e-06,0.0,0 STARLINK-3229,1 49751U 21115AD  24165.19459090  .00000628  00000-0  57508-4 0  9996,2 49751  53.2173 117.4031 0001390  82.6911 277.4239 15.08847355140865,6917.858,95.437,540.684,538.761,0.0
49751.0,STARLINK-3229,PAYLOAD,2024-06-13 14:12:31,15.08843824,0.0001325,53.2173,115.6197,97.7009,262.4134,3.5214e-05,2.73e-06,0.0,0 STARLINK-3229,1 49751U 21115AD  24165.59203122  .00000273  00000-0  35214-4 0  9999,2 49751  53.2173 115.6197 0001325  97.7009 262.4134 15.08843824139819,6917.869,95.437,540.65,538.817,0.0
49751.0,STARLINK-3229,PAYLOAD,2024-06-14 14:03:18,15.0883894,0.0001254,53.2169,111.1585,99.8143,260.2991,8.4234e-05,1.053e-05,0.0,0 STARLINK-3229,1 49751U 21115AD  24166.58563463  .00001053  00000-0  84234-4 0  9999,2 49751  53.2169 111.1585 0001254  99.8143 260.2991 15.08838940139965,6917.884,95.438,540.616,538.881,0.0
49751.0,STARLINK-3229,PAYLOAD,2024-06-14 20:24:51,15.08843654,0.0001338,53.2175,109.97,101.9018,258.2125,-3.747e-05,-8.84e-06,0.0,0 STARLINK-3229,1 49751U 21115AD  24166.85059634 -.00000884  00000-0 -37470-4 0  9992,2 49751  53.2175 109.9700 0001338 101.9018 258.2125 15.08843654140006,6917.869,95.437,540.66,538.809,0.0
49751.0,STARLINK-3229,PAYLOAD,2024-06-15 05:57:09,15.08846763,0.0001323,53.2168,108.1867,103.4529,256.6611,2.607e-05,1.27e-06,0.0,0 STARLINK-3229,1 49751U 21115AD  24167.24803083  .00000127  00000-0  26070-4 0  9993,2 49751  53.2168 108.1867 0001323 103.4529 256.6611 15.08846763140063,6917.86,95.437,540.64,538.809,0.0
49751.0,STARLINK-3229,PAYLOAD,2024-06-16 12:09:29,15.0884187,0.0001343,53.2175,102.5348,98.182,261.9325,5.9505e-05,6.59e-06,0.0,0 STARLINK-3229,1 49751U 21115AD  24168.50659141  .00000659  00000-0  59505-4 0  9996,2 49751  53.2175 102.5348 0001343  98.1820 261.9325 15.08841870140255,6917.875,95.437,540.669,538.811,0.0
49751.0,STARLINK-3229,PAYLOAD,2024-06-16 20:06:26,15.08832882,0.0001844,53.2193,101.0506,96.7215,263.3987,-8.5847e-06,-4.25e-06,0.0,0 STARLINK-3229,1 49751U 21115AD  24168.83780171 -.00000425  00000-0 -85847-5 0  9992,2 49751  53.2193 101.0506 0001844  96.7215 263.3987 15.08832882140302,6917.902,95.438,541.043,538.491,0.0
49751.0,STARLINK-3229,PAYLOAD,2024-06-17 12:00:18,15.08820614,0.0001105,53.2192,98.0755,85.645,274.4668,-0.00011295,-2.084e-05,0.0,0 STARLINK-3229,1 49751U 21115AD  24169.50021863 -.00002084  00000-0 -11295-3 0  9990,2 49751  53.2192  98.0755 0001105  85.6450 274.4668 15.08820614140400,6917.94,95.439,540.569,539.04,0.0
49751.0,STARLINK-3229,PAYLOAD,2024-06-18 02:18:46,15.08832397,0.0001101,53.2177,95.4006,87.6273,272.4845,-2.6584e-05,-7.11e-06,0.0,0 STARLINK-3229,1 49751U 21115AD  24170.09637543 -.00000711  00000-0 -26584-4 0  9997,2 49751  53.2177  95.4006 0001101  87.6273 272.4845 15.08832397141603,6917.904,95.438,540.53,539.007,0.0
49751.0,STARLINK-3229,PAYLOAD,2024-06-18 11:51:04,15.08843306,0.0001213,53.2183,93.6168,94.0256,266.0875,4.8323e-05,4.81e-06,0.0,0 STARLINK-3229,1 49751U 21115AD  24170.49380777  .00000481  00000-0  48323-4 0  9992,2 49751  53.2183  93.6168 0001213  94.0256 266.0875 15.08843306141666,6917.87,95.437,540.574,538.896,0.0
49751.0,STARLINK-3229,PAYLOAD,2024-06-19 02:09:35,15.08753504,0.0001571,53.2176,90.9406,85.9121,274.2051,0.001737,0.00027399,0.0,0 STARLINK-3229,1 49751U 21115AD  24171.08999227  .00027399  00000-0  17370-2 0  9997,2 49751  53.2176  90.9406 0001571  85.9121 274.2051 15.08753504141757,6918.145,95.443,541.097,538.923,0.0
49751.0,STARLINK-3229,PAYLOAD,2024-06-19 11:41:51,15.08842834,0.0001018,53.2167,89.1558,81.0507,279.0601,0.00043691,6.673e-05,0.0,0 STARLINK-3229,1 49751U 21115AD  24171.48740327  .00006673  00000-0  43691-3 0  9994,2 49751  53.2167  89.1558 0001018  81.0507 279.0601 15.08842834141812,6917.872,95.437,540.441,539.032,0.0
49751.0,STARLINK-3229,PAYLOAD,2024-06-19 22:49:33,15.0884818,0.0001819,53.2171,87.0745,87.3615,272.7585,0.00018164,2.605e-05,0.0,0 STARLINK-3229,1 49751U 21115AD  24171.95108621  .00002605  00000-0  18164-3 0  9999,2 49751  53.2171  87.0745 0001819  87.3615 272.7585 15.08848180140775,6917.855,95.437,540.979,538.462,0.0
49751.0,STARLINK-3229,PAYLOAD,2024-06-20 11:32:38,15.08846823,0.0001236,53.2162,84.6961,80.5427,279.5705,1.5741e-05,-3.7e-07,0.0,0 STARLINK-3229,1 49751U 21115AD  24172.48100399 -.00000037  00000-0  15741-4 0  9999,2 49751  53.2162  84.6961 0001236  80.5427 279.5705 15.08846823140857,6917.86,95.437,540.58,538.869,0.0
49751.0,STARLINK-3229,PAYLOAD,2024-06-20 22:40:20,15.08843485,0.0001418,53.2171,82.6156,79.5227,280.5925,-0.00010418,-1.946e-05,0.0,0 STARLINK-3229,1 49751U 21115AD  24172.94468491 -.00001946  00000-0 -10418-3 0  9996,2 49751  53.2171  82.6156 0001418  79.5227 280.5925 15.08843485142038,6917.87,95.437,540.716,538.754,0.0
49751.0,STARLINK-3229,PAYLOAD,2024-06-21 03:26:29,15.08846564,0.0001266,53.2156,81.7211,82.3128,277.8008,-6.2204e-05,-1.278e-05,0.0,0 STARLINK-3229,1 49751U 21115AD  24173.14340199 -.00001278  00000-0 -62204-4 0  9992,2 49751  53.2156  81.7211 0001266  82.3128 277.8008 15.08846564140957,6917.86,95.437,540.601,538.85,0.0
49751.0,STARLINK-3229,PAYLOAD,2024-06-21 22:31:07,15.08844766,0.0001404,53.2159,78.1532,82.4113,277.7038,0.00012937,1.772e-05,0.0,0 STARLINK-3229,1 49751U 21115AD  24173.93828301  .00001772  00000-0  12937-3 0  9999,2 49751  53.2159  78.1532 0001404  82.4113 277.7038 15.08844766141073,6917.866,95.437,540.702,538.76,0.0
49751.0,STARLINK-3229,PAYLOAD,2024-06-22 00:06:30,15.08845671,0.0001288,53.2163,77.8556,84.7026,275.4113,0.00011843,1.598e-05,0.0,0 STARLINK-3229,1 49751U 21115AD  24174.00452221  .00001598  00000-0  11843-3 0  9993,2 49751  53.2163  77.8556 0001288  84.7026 275.4113 15.08845671142197,6917.863,95.437,540.619,538.837,0.0
49751.0,STARLINK-3229,PAYLOAD,2024-06-22 20:46:32,15.08829701,0.0001398,53.2185,73.9903,91.9472,268.168,0.00029005,4.33e-05,0.0,0 STARLINK-3229,1 49751U 21115AD  24174.86564926  .00004330  00000-0  29005-3 0  9999,2 49751  53.2185  73.9903 0001398  91.9472 268.1680 15.08829701142320,6917.912,95.438,540.744,538.81,0.0
49751.0,STARLINK-3229,PAYLOAD,2024-06-22 22:21:55,15.08817463,0.0001292,53.2188,73.6929,97.1659,262.948,0.00047419,7.262e-05,0.0,0 STARLINK-3229,1 49751U 21115AD  24174.93189512  .00007262  00000-0  47419-3 0  9997,2 49751  53.2188  73.6929 0001292  97.1659 262.9480 15.08817463141226,6917.949,95.439,540.708,538.92,0.0
49751.0,STARLINK-3229,PAYLOAD,2024-06-23 03:08:04,15.0884212,0.0001399,53.2185,72.8002,94.1432,265.972,7.661e-05,9.32e-06,0.0,0 STARLINK-3229,1 49751U 21115AD  24175.13060374  .00000932  00000-0  76610-4 0  9997,2 49751  53.2185  72.8002 0001399  94.1432 265.9720 15.08842120142364,6917.874,95.437,540.707,538.771,0.0
49751.0,STARLINK-3229,PAYLOAD,2024-06-23 22:12:41,15.08841121,0.0001449,53.2186,69.2313,105.0752,255.0401,5.921e-05,6.55e-06,0.0,0 STARLINK-3229,1 49751U 21115AD  24175.92548374  .00000655  00000-0  59210-4 0  9994,2 49751  53.2186  69.2313 0001449 105.0752 255.0401 15.08841121141379,6917.877,95.437,540.744,538.74,0.0
49751.0,STARLINK-3229,PAYLOAD,2024-06-24 02:58:50,15.08844577,0.0001431,53.2184,68.3385,104.1324,255.9827,8.4526e-05,1.058e-05,0.0,0 STARLINK-3229,1 49751U 21115AD  24176.12420050  .00001058  00000-0  84526-4 0  9993,2 49751  53.2184  68.3385 0001431 104.1324 255.9827 15.08844577141405,6917.866,95.437,540.721,538.741,0.0
49751.0,STARLINK-3229,PAYLOAD,2024-06-24 20:28:06,15.08808293,0.0001623,53.2184,65.066,105.1769,254.9403,0.00039791,6.045e-05,0.0,0 STARLINK-3229,1 49751U 21115AD  24176.85285586  .00006045  00000-0  39791-3 0  9990,2 49751  53.2184  65.0660 0001623 105.1769 254.9403 15.08808293142621,6917.977,95.44,540.965,538.72,0.0
49751.0,STARLINK-3229,PAYLOAD,2024-06-24 22:03:29,15.08836801,0.0001407,53.218,64.7688,105.2193,254.8955,1.9447e-05,2.2e-07,0.0,0 STARLINK-3229,1 49751U 21115AD  24176.91908851  .00000022  00000-0  19447-4 0  9990,2 49751  53.2180  64.7688 0001407 105.2193 254.8955 15.08836801141520,6917.89,95.438,540.729,538.782,0.0
49751.0,STARLINK-3229,PAYLOAD,2024-06-25 21:54:15,15.08845774,0.0001342,53.2174,60.3061,96.2149,263.8996,3.5581e-05,2.78e-06,0.0,0 STARLINK-3229,1 49751U 21115AD  24177.91268393  .00000278  00000-0  35581-4 0  9991,2 49751  53.2174  60.3061 0001342  96.2149 263.8996 15.08845774141678,6917.863,95.437,540.656,538.799,0.0
49751.0,STARLINK-3229,PAYLOAD,2024-06-26 23:20:26,15.08839711,0.0001274,53.2164,55.5498,76.3648,283.7486,5.7568e-05,6.28e-06,0.0,0 STARLINK-3229,1 49751U 21115AD  24178.97252920  .00000628  00000-0  57568-4 0  9995,2 49751  53.2164  55.5498 0001274  76.3648 283.7486 15.08839711142944,6917.881,95.438,540.628,538.865,0.0
49751.0,STARLINK-3229,PAYLOAD,2024-06-27 21:35:50,15.08836217,0.0001192,53.2161,51.3931,88.7753,271.3376,5.3905e-05,5.7e-06,0.0,0 STARLINK-3229,1 49751U 21115AD  24179.89989352  .00000570  00000-0  53905-4 0  9990,2 49751  53.2161  51.3931 0001192  88.7753 271.3376 15.08836217141971,6917.892,95.438,540.582,538.932,0.0
49751.0,STARLINK-3229,PAYLOAD,2024-06-28 08:43:32,15.08844932,0.0001186,53.2173,49.3112,90.6208,269.492,9.9993e-05,1.304e-05,0.0,0 STARLINK-3229,1 49751U 21115AD  24180.36356617  .00001304  00000-0  99993-4 0  9999,2 49751  53.2173  49.3112 0001186  90.6208 269.4920 15.08844932143150,6917.865,95.437,540.551,538.91,0.0
49751.0,STARLINK-3229,PAYLOAD,2024-06-28 21:26:36,15.08851858,0.000132,53.2151,46.9352,80.3897,279.7244,0.0002014,2.92e-05,0.0,0 STARLINK-3229,1 49751U 21115AD  24180.89347783  .00002920  00000-0  20140-3 0  9993,2 49751  53.2151  46.9352 0001320  80.3897 279.7244 15.08851858143232,6917.844,95.437,540.622,538.796,0.0
